NORAD_CAT_ID,OBJECT_NAME,OBJECT_TYPE,EPOCH,MEAN_MOTION,ECCENTRICITY,INCLINATION,RA_OF_ASC_NODE,ARG_OF_PERICENTER,MEAN_ANOMALY,BSTAR,MEAN_MOTION_DOT,MEAN_MOTION_DDOT,TLE_LINE0,TLE_LINE1,TLE_LINE2,SEMIMAJOR_AXIS,PERIOD,APOGEE,PERIGEE,DECAYED
53433.0,STARLINK-4549,PAYLOAD,2024-06-08 12:54:43,15.08860189,0.000136,53.2184,93.3808,69.5774,290.5364,0.00030195,4.523e-05,0.0,0 STARLINK-4549,1 53433U 22097AX  24160.53800240  .00004523  00000-0  30195-3 0  9998,2 53433  53.2184  93.3808 0001360  69.5774 290.5364 15.08860189102279,6917.819,95.436,540.625,538.743,0.0
53433.0,STARLINK-4549,PAYLOAD,2024-06-08 19:16:17,15.0882137,0.0001887,53.2184,92.1928,78.0206,282.0997,-0.00013679,-2.463e-05,0.0,0 STARLINK-4549,1 53433U 22097AX  24160.80298362 -.00002463  00000-0 -13679-3 0  9995,2 53433  53.2184  92.1928 0001887  78.0206 282.0997 15.08821370101858,6917.937,95.439,541.108,538.497,0.0
53433.0,STARLINK-4549,PAYLOAD,2024-06-09 01:37:49,15.0882634,0.0001027,53.2178,91.0055,64.7764,295.3335,-0.00026068,-4.432e-05,0.0,0 STARLINK-4549,1 53433U 22097AX  24161.06793698 -.00004432  00000-0 -26068-3 0  9990,2 53433  53.2178  91.0055 0001027  64.7764 295.3335 15.08826340101896,6917.922,95.438,540.498,539.077,0.0
53433.0,STARLINK-4549,PAYLOAD,2024-06-10 01:28:37,15.08838286,0.000155,53.2191,86.5427,90.3167,269.8003,0.00016595,2.354e-05,0.0,0 STARLINK-4549,1 53433U 22097AX  24162.06154228  .00002354  00000-0  16595-3 0  9994,2 53433  53.2191  86.5427 0001550  90.3167 269.8003 15.08838286102044,6917.886,95.438,540.823,538.678,0.0
53433.0,STARLINK-4549,PAYLOAD,2024-06-10 12:36:18,15.08846942,0.0001452,53.2183,84.4612,87.9734,272.1424,0.0003063,4.591e-05,0.0,0 STARLINK-4549,1 53433U 22097AX  24162.52521947  .00004591  00000-0  30630-3 0  9992,2 53433  53.2183  84.4612 0001452  87.9734 272.1424 15.08846942102571,6917.859,95.437,540.729,538.72,0.0
53433.0,STARLINK-4549,PAYLOAD,2024-06-10 22:08:38,15.08841238,0.0001566,53.2198,82.6763,98.2578,261.8592,0.00043091,6.577e-05,0.0,0 STARLINK-4549,1 53433U 22097AX  24162.92266438  .00006577  00000-0  43091-3 0  9998,2 53433  53.2198  82.6763 0001566  98.2578 261.8592 15.08841238102632,6917.877,95.437,540.825,538.658,0.0
53433.0,STARLINK-4549,PAYLOAD,2024-06-11 04:30:10,15.08846174,0.0001487,53.2181,81.4881,84.0622,276.054,0.00037026,5.611e-05,0.0,0 STARLINK-4549,1 53433U 22097AX  24163.18762243  .00005611  00000-0  37026-3 0  9991,2 53433  53.2181  81.4881 0001487  84.0622 276.0540 15.08846174102216,6917.862,95.437,540.755,538.698,0.0
53433.0,STARLINK-4549,PAYLOAD,2024-06-12 01:10:11,15.08836498,0.0001427,53.2178,77.6206,83.4217,276.6938,5.7913e-05,6.34e-06,0.0,0 STARLINK-4549,1 53433U 22097AX  24164.04874653  .00000634  00000-0  57913-4 0  9994,2 53433  53.2178  77.6206 0001427  83.4217 276.6938 15.08836498102346,6917.891,95.438,540.743,538.769,0.0
53433.0,STARLINK-4549,PAYLOAD,2024-06-12 21:50:12,15.08837476,0.0001374,53.2178,73.7545,77.7602,282.3544,0.00016412,2.325e-05,0.0,0 STARLINK-4549,1 53433U 22097AX  24164.90986763  .00002325  00000-0  16412-3 0  9992,2 53433  53.2178  73.7545 0001374  77.7602 282.3544 15.08837476102933,6917.888,95.438,540.704,538.803,0.0
53433.0,STARLINK-4549,PAYLOAD,2024-06-13 04:11:44,15.08840563,0.0001327,53.2176,72.5643,75.616,284.4979,7.8888e-05,9.68e-06,0.0,0 STARLINK-4549,1 53433U 22097AX  24165.17482572  .00000968  00000-0  78888-4 0  9998,2 53433  53.2176  72.5643 0001327  75.6160 284.4979 15.08840563102511,6917.879,95.438,540.662,538.826,0.0
53433.0,STARLINK-4549,PAYLOAD,2024-06-13 10:33:16,15.0885189,0.0001269,53.2178,71.3809,88.7887,271.325,0.00018676,2.687e-05,0.0,0 STARLINK-4549,1 53433U 22097AX  24165.43977824  .00002687  00000-0  18676-3 0  9994,2 53433  53.2178  71.3809 0001269  88.7887 271.3250 15.08851890102556,6917.844,95.437,540.587,538.831,0.0
53433.0,STARLINK-4549,PAYLOAD,2024-06-13 21:40:59,15.08836509,0.0001826,53.2193,69.3044,101.5437,258.576,9.7534e-05,1.264e-05,0.0,0 STARLINK-4549,1 53433U 22097AX  24165.90346810  .00001264  00000-0  97534-4 0  9992,2 53433  53.2193  69.3044 0001826 101.5437 258.5760 15.08836509103087,6917.891,95.438,541.019,538.493,0.0
53433.0,STARLINK-4549,PAYLOAD,2024-06-14 10:24:04,15.08845311,0.0001395,53.218,66.9206,90.3773,269.7379,0.00017825,2.55e-05,0.0,0 STARLINK-4549,1 53433U 22097AX  24166.43338361  .00002550  00000-0  17825-3 0  9996,2 53433  53.2180  66.9206 0001395  90.3773 269.7379 15.08845311103165,6917.864,95.437,540.694,538.764,0.0
53433.0,STARLINK-4549,PAYLOAD,2024-06-14 21:31:46,15.08837009,0.000161,53.2192,64.8399,102.9279,257.1893,-2.5551e-05,-6.95e-06,0.0,0 STARLINK-4549,1 53433U 22097AX  24166.89706859 -.00000695  00000-0 -25551-4 0  9993,2 53433  53.2192  64.8399 0001610 102.9279 257.1893 15.08837009102772,6917.89,95.438,540.868,538.641,0.0
53433.0,STARLINK-4549,PAYLOAD,2024-06-15 10:14:50,15.08855974,0.000149,53.2195,62.4575,76.0218,284.094,0.00018163,2.605e-05,0.0,0 STARLINK-4549,1 53433U 22097AX  24167.42697776  .00002605  00000-0  18163-3 0  9991,2 53433  53.2195  62.4575 0001490  76.0218 284.0940 15.08855974103319,6917.832,95.437,540.727,538.666,0.0
53433.0,STARLINK-4549,PAYLOAD,2024-06-15 22:57:56,15.08837401,0.0001195,53.2186,60.0824,88.4128,271.7001,9.5999e-05,1.24e-05,0.0,0 STARLINK-4549,1 53433U 22097AX  24167.95690694  .00001240  00000-0  95999-4 0  9998,2 53433  53.2186  60.0824 0001195  88.4128 271.7001 15.08837401103393,6917.888,95.438,540.58,538.927,0.0
53433.0,STARLINK-4549,PAYLOAD,2024-06-16 10:05:37,15.08859048,0.0001084,53.2172,57.9979,77.7187,282.3927,0.00028314,4.224e-05,0.0,0 STARLINK-4549,1 53433U 22097AX  24168.42057325  .00004224  00000-0  28314-3 0  9990,2 53433  53.2172  57.9979 0001084  77.7187 282.3927 15.08859048103461,6917.822,95.436,540.437,538.937,0.0
53433.0,STARLINK-4549,PAYLOAD,2024-06-16 22:48:43,15.08836985,0.0001448,53.218,55.6177,84.7023,275.4134,-1.4491e-05,-5.19e-06,0.0,0 STARLINK-4549,1 53433U 22097AX  24168.95050417 -.00000519  00000-0 -14491-4 0  9990,2 53433  53.2180  55.6177 0001448  84.7023 275.4134 15.08836985103543,6917.89,95.438,540.756,538.753,0.0
53433.0,STARLINK-4549,PAYLOAD,2024-06-17 22:39:31,15.08840467,0.0001634,53.22,51.159,90.8425,269.2755,0.00039611,6.022e-05,0.0,0 STARLINK-4549,1 53433U 22097AX  24169.94410907  .00006022  00000-0  39611-3 0  9997,2 53433  53.2200  51.1590 0001634  90.8425 269.2755 15.08840467103693,6917.879,95.438,540.874,538.614,0.0
53433.0,STARLINK-4549,PAYLOAD,2024-06-18 19:19:31,15.08841462,0.0001636,53.2203,47.294,89.9556,270.1623,0.00026878,3.992e-05,0.0,0 STARLINK-4549,1 53433U 22097AX  24170.80523124  .00003992  00000-0  26878-3 0  9994,2 53433  53.2203  47.2940 0001636  89.9556 270.1623 15.08841462103362,6917.876,95.437,540.873,538.609,0.0
53433.0,STARLINK-4549,PAYLOAD,2024-06-18 22:30:18,15.08840371,0.0001604,53.2206,46.6984,92.268,267.8496,0.00021601,3.151e-05,0.0,0 STARLINK-4549,1 53433U 22097AX  24170.93771144  .00003151  00000-0  21601-3 0  9991,2 53433  53.2206  46.6984 0001604  92.2680 267.8496 15.08840371103848,6917.879,95.438,540.854,538.635,0.0
53433.0,STARLINK-4549,PAYLOAD,2024-06-19 20:45:42,15.08842737,0.0001404,53.2183,42.5352,92.3984,267.7169,0.00018168,2.605e-05,0.0,0 STARLINK-4549,1 53433U 22097AX  24171.86507105  .00002605  00000-0  18168-3 0  9995,2 53433  53.2183  42.5352 0001404  92.3984 267.7169 15.08842737103521,6917.872,95.437,540.708,538.766,0.0
53433.0,STARLINK-4549,PAYLOAD,2024-06-19 22:21:05,15.0884317,0.0001338,53.2178,42.2366,90.9766,269.1379,0.00016001,2.26e-05,0.0,0 STARLINK-4549,1 53433U 22097AX  24171.93131048  .00002260  00000-0  16001-3 0  9993,2 53433  53.2178  42.2366 0001338  90.9766 269.1379 15.08843170103997,6917.871,95.437,540.661,538.81,0.0
53433.0,STARLINK-4549,PAYLOAD,2024-06-20 14:14:56,15.08844179,0.0001919,53.2176,39.2664,88.6775,271.4437,0.00016645,2.362e-05,0.0,0 STARLINK-4549,1 53433U 22097AX  24172.59371033  .00002362  00000-0  16645-3 0  9993,2 53433  53.2176  39.2664 0001919  88.6775 271.4437 15.08844179104094,6917.868,95.437,541.06,538.405,0.0
53433.0,STARLINK-4549,PAYLOAD,2024-06-20 20:36:29,15.08833478,0.0001335,53.2175,38.0768,99.8632,260.2511,-5.7471e-05,-1.202e-05,0.0,0 STARLINK-4549,1 53433U 22097AX  24172.85867325 -.00001202  00000-0 -57471-4 0  9993,2 53433  53.2175  38.0768 0001335  99.8632 260.2511 15.08833478103675,6917.9,95.438,540.689,538.842,0.0
53433.0,STARLINK-4549,PAYLOAD,2024-06-21 14:05:43,15.08840999,0.00014,53.2181,34.8064,111.8456,248.2685,0.00010713,1.417e-05,0.0,0 STARLINK-4549,1 53433U 22097AX  24173.58731179  .00001417  00000-0  10713-3 0  9994,2 53433  53.2181  34.8064 0001400 111.8456 248.2685 15.08840999104245,6917.877,95.437,540.711,538.774,0.0
53433.0,STARLINK-4549,PAYLOAD,2024-06-21 22:02:39,15.08838271,0.0001194,53.2168,33.3185,95.9248,264.188,7.7365e-05,9.44e-06,0.0,0 STARLINK-4549,1 53433U 22097AX  24173.91851446  .00000944  00000-0  77365-4 0  9992,2 53433  53.2168  33.3185 0001194  95.9248 264.1880 15.08838271104298,6917.886,95.438,540.577,538.925,0.0
53433.0,STARLINK-4549,PAYLOAD,2024-06-22 21:53:26,15.08846725,0.0001108,53.2162,28.8568,89.6765,270.4354,0.00030461,4.564e-05,0.0,0 STARLINK-4549,1 53433U 22097AX  24174.91211392  .00004564  00000-0  30461-3 0  9990,2 53433  53.2162  28.8568 0001108  89.6765 270.4354 15.08846725104441,6917.86,95.437,540.491,538.958,0.0
53433.0,STARLINK-4549,PAYLOAD,2024-06-22 23:28:49,15.08847481,0.0001119,53.2162,28.5596,91.071,269.0411,0.00031046,4.658e-05,0.0,0 STARLINK-4549,1 53433U 22097AX  24174.97835352  .00004658  00000-0  31046-3 0  9998,2 53433  53.2162  28.5596 0001119  91.0710 269.0411 15.08847481103995,6917.858,95.437,540.497,538.948,0.0
53433.0,STARLINK-4549,PAYLOAD,2024-06-23 13:47:18,15.0884539,0.0001221,53.2164,25.8831,87.8091,272.3041,0.00022949,3.367e-05,0.0,0 STARLINK-4549,1 53433U 22097AX  24175.57451420  .00003367  00000-0  22949-3 0  9993,2 53433  53.2164  25.8831 0001221  87.8091 272.3041 15.08845390104543,6917.864,95.437,540.574,538.884,0.0
